STARLINK-36817          
1 67882U 26035D   26064.16668981 -.00943409  28655-3 -21309-2 0  9997
2 67882  97.2756 356.1571 0001140 110.6718  92.7004 15.97624785  3028
STARLINK-36856          
1 67883U 26035E   26064.16668981 -.00940997  28495-3 -21347-2 0  9991
2 67883  97.2762 356.1557 0001143 100.3586  99.2032 15.97545561  3029
STARLINK-36842          
1 67884U 26035F   26064.16668981 -.00938358  28395-3 -21102-2 0  9998
2 67884  97.2757 356.1587 0001258 121.1821  85.7591 15.97703720  3020
STARLINK-36826          
1 67885U 26035G   26064.16668981 -.00852236  23759-3 -19089-2 0  9999
2 67885  97.2756 356.1599 0001326 121.5130  88.3210 15.97764592  3027
STARLINK-36390          
1 67886U 26035H   26064.16668981 -.00947143  28942-3 -21115-2 0  9994
2 67886  97.2752 356.1615 0001105  98.6796 115.4387 15.97863497  3076
STARLINK-36368          
1 67887U 26035J   26064.16668981 -.00937753  28436-3 -20811-2 0  9991
2 67887  97.2751 356.1632 0001330 115.7295 102.4894 15.97943857  3023
STARLINK-36801          
1 67888U 26035K   26064.16668981 -.00954643  29424-3 -21081-2 0  9997
2 67888  97.2748 356.1650 0001144 115.9453 106.2268 15.98036685  3021
STARLINK-36372          
1 67889U 26035L   26064.16668981 -.00946259  29002-3 -20692-2 0  9991
2 67889  97.2742 356.1678 0001227 123.5420 106.2259 15.98213215  3023
STARLINK-36363          
1 67890U 26035M   26064.16668981 -.00954041  29418-3 -20967-2 0  9997
2 67890  97.2748 356.1670 0001198 109.0716 117.5551 15.98123434  3020
STARLINK-36816          
1 67891U 26035N   26064.17938028 -.00437906  70038-4 -87870-3 0  9999
2 67891  97.2738 356.2032 0001614 175.2472 184.8822 15.99682736  3125
STARLINK-36813          
1 67892U 26035P   26064.18384213 -.00267850  28165-4 -55437-3 0  9999
2 67892  97.2727 356.1986 0000802 130.2811 229.8537 15.99104641  3124
STARLINK-36803          
1 67893U 26035Q   26064.16668981 -.00933262  28290-3 -20323-2 0  9995
2 67893  97.2742 356.1698 0001113 115.2078 119.3173 15.98287124  3021
STARLINK-36846          
1 67894U 26035R   26064.16668981 -.00963371  30079-3 -20736-2 0  9996
2 67894  97.2738 356.1737 0001140 113.2046 131.0041 15.98500962  3027
STARLINK-36866          
1 67895U 26035S   26064.18609463 -.00265345  27601-4 -55849-3 0  9997
2 67895  97.2738 356.1972 0000624  49.4563 310.6769 15.98803356  3125
STARLINK-36877          
1 67896U 26035T   26064.16668981 -.00948288  29177-3 -20529-2 0  9995
2 67896  97.2738 356.1716 0001049  94.1436 145.4102 15.98395591  3021
STARLINK-36870          
1 67897U 26035U   26064.18524844 -.00130907  85430-5 -27357-3 0  9991
2 67897  97.2734 356.1977 0001474 164.0686 196.0639 15.98875422  3127
