[{"OBJECT_NAME":"STARLINK-36817","OBJECT_ID":"2026-035D","EPOCH":"2026-03-05T04:00:01.999584","MEAN_MOTION":15.97624785,"ECCENTRICITY":0.000114,"INCLINATION":97.2756,"RA_OF_ASC_NODE":356.1571,"ARG_OF_PERICENTER":110.6718,"MEAN_ANOMALY":92.7004,"EPHEMERIS_TYPE":0,"CLASSIFICATION_TYPE":"U","NORAD_CAT_ID":67882,"ELEMENT_SET_NO":999,"REV_AT_EPOCH":302,"BSTAR":-0.0021309,"MEAN_MOTION_DOT":-0.00943409,"MEAN_MOTION_DDOT":0.00028655},{"OBJECT_NAME":"STARLINK-36856","OBJECT_ID":"2026-035E","EPOCH":"2026-03-05T04:00:01.999584","MEAN_MOTION":15.97545561,"ECCENTRICITY":0.0001143,"INCLINATION":97.2762,"RA_OF_ASC_NODE":356.1557,"ARG_OF_PERICENTER":100.3586,"MEAN_ANOMALY":99.2032,"EPHEMERIS_TYPE":0,"CLASSIFICATION_TYPE":"U","NORAD_CAT_ID":67883,"ELEMENT_SET_NO":999,"REV_AT_EPOCH":302,"BSTAR":-0.0021347,"MEAN_MOTION_DOT":-0.00940997,"MEAN_MOTION_DDOT":0.00028495},{"OBJECT_NAME":"STARLINK-36842","OBJECT_ID":"2026-035F","EPOCH":"2026-03-05T04:00:01.999584","MEAN_MOTION":15.9770372,"ECCENTRICITY":0.0001258,"INCLINATION":97.2757,"RA_OF_ASC_NODE":356.1587,"ARG_OF_PERICENTER":121.1821,"MEAN_ANOMALY":85.7591,"EPHEMERIS_TYPE":0,"CLASSIFICATION_TYPE":"U","NORAD_CAT_ID":67884,"ELEMENT_SET_NO":999,"REV_AT_EPOCH":302,"BSTAR":-0.0021102,"MEAN_MOTION_DOT":-0.00938358,"MEAN_MOTION_DDOT":0.00028395},{"OBJECT_NAME":"STARLINK-36826","OBJECT_ID":"2026-035G","EPOCH":"2026-03-05T04:00:01.999584","MEAN_MOTION":15.97764592,"ECCENTRICITY":0.0001326,"INCLINATION":97.2756,"RA_OF_ASC_NODE":356.1599,"ARG_OF_PERICENTER":121.513,"MEAN_ANOMALY":88.321,"EPHEMERIS_TYPE":0,"CLASSIFICATION_TYPE":"U","NORAD_CAT_ID":67885,"ELEMENT_SET_NO":999,"REV_AT_EPOCH":302,"BSTAR":-0.0019089,"MEAN_MOTION_DOT":-0.00852236,"MEAN_MOTION_DDOT":0.00023759},{"OBJECT_NAME":"STARLINK-36390","OBJECT_ID":"2026-035H","EPOCH":"2026-03-05T04:00:01.999584","MEAN_MOTION":15.97863497,"ECCENTRICITY":0.0001105,"INCLINATION":97.2752,"RA_OF_ASC_NODE":356.1615,"ARG_OF_PERICENTER":98.6796,"MEAN_ANOMALY":115.4387,"EPHEMERIS_TYPE":0,"CLASSIFICATION_TYPE":"U","NORAD_CAT_ID":67886,"ELEMENT_SET_NO":999,"REV_AT_EPOCH":307,"BSTAR":-0.0021115,"MEAN_MOTION_DOT":-0.00947143,"MEAN_MOTION_DDOT":0.00028942},{"OBJECT_NAME":"STARLINK-36368","OBJECT_ID":"2026-035J","EPOCH":"2026-03-05T04:00:01.999584","MEAN_MOTION":15.97943857,"ECCENTRICITY":0.000133,"INCLINATION":97.2751,"RA_OF_ASC_NODE":356.1632,"ARG_OF_PERICENTER":115.7295,"MEAN_ANOMALY":102.4894,"EPHEMERIS_TYPE":0,"CLASSIFICATION_TYPE":"U","NORAD_CAT_ID":67887,"ELEMENT_SET_NO":999,"REV_AT_EPOCH":302,"BSTAR":-0.0020811,"MEAN_MOTION_DOT":-0.00937753,"MEAN_MOTION_DDOT":0.00028436},{"OBJECT_NAME":"STARLINK-36801","OBJECT_ID":"2026-035K","EPOCH":"2026-03-05T04:00:01.999584","MEAN_MOTION":15.98036685,"ECCENTRICITY":0.0001144,"INCLINATION":97.2748,"RA_OF_ASC_NODE":356.165,"ARG_OF_PERICENTER":115.9453,"MEAN_ANOMALY":106.2268,"EPHEMERIS_TYPE":0,"CLASSIFICATION_TYPE":"U","NORAD_CAT_ID":67888,"ELEMENT_SET_NO":999,"REV_AT_EPOCH":302,"BSTAR":-0.0021081,"MEAN_MOTION_DOT":-0.00954643,"MEAN_MOTION_DDOT":0.00029424},{"OBJECT_NAME":"STARLINK-36372","OBJECT_ID":"2026-035L","EPOCH":"2026-03-05T04:00:01.999584","MEAN_MOTION":15.98213215,"ECCENTRICITY":0.0001227,"INCLINATION":97.2742,"RA_OF_ASC_NODE":356.1678,"ARG_OF_PERICENTER":123.542,"MEAN_ANOMALY":106.2259,"EPHEMERIS_TYPE":0,"CLASSIFICATION_TYPE":"U","NORAD_CAT_ID":67889,"ELEMENT_SET_NO":999,"REV_AT_EPOCH":302,"BSTAR":-0.0020692,"MEAN_MOTION_DOT":-0.00946259,"MEAN_MOTION_DDOT":0.00029002},{"OBJECT_NAME":"STARLINK-36363","OBJECT_ID":"2026-035M","EPOCH":"2026-03-05T04:00:01.999584","MEAN_MOTION":15.98123434,"ECCENTRICITY":0.0001198,"INCLINATION":97.2748,"RA_OF_ASC_NODE":356.167,"ARG_OF_PERICENTER":109.0716,"MEAN_ANOMALY":117.5551,"EPHEMERIS_TYPE":0,"CLASSIFICATION_TYPE":"U","NORAD_CAT_ID":67890,"ELEMENT_SET_NO":999,"REV_AT_EPOCH":302,"BSTAR":-0.0020967,"MEAN_MOTION_DOT":-0.00954041,"MEAN_MOTION_DDOT":0.00029418},{"OBJECT_NAME":"STARLINK-36816","OBJECT_ID":"2026-035N","EPOCH":"2026-03-05T04:18:18.456192","MEAN_MOTION":15.99682736,"ECCENTRICITY":0.0001614,"INCLINATION":97.2738,"RA_OF_ASC_NODE":356.2032,"ARG_OF_PERICENTER":175.2472,"MEAN_ANOMALY":184.8822,"EPHEMERIS_TYPE":0,"CLASSIFICATION_TYPE":"U","NORAD_CAT_ID":67891,"ELEMENT_SET_NO":999,"REV_AT_EPOCH":312,"BSTAR":-0.0008787,"MEAN_MOTION_DOT":-0.00437906,"MEAN_MOTION_DDOT":7.0038e-5},{"OBJECT_NAME":"STARLINK-36813","OBJECT_ID":"2026-035P","EPOCH":"2026-03-05T04:24:43.960032","MEAN_MOTION":15.99104641,"ECCENTRICITY":8.02e-5,"INCLINATION":97.2727,"RA_OF_ASC_NODE":356.1986,"ARG_OF_PERICENTER":130.2811,"MEAN_ANOMALY":229.8537,"EPHEMERIS_TYPE":0,"CLASSIFICATION_TYPE":"U","NORAD_CAT_ID":67892,"ELEMENT_SET_NO":999,"REV_AT_EPOCH":312,"BSTAR":-0.00055437,"MEAN_MOTION_DOT":-0.0026785,"MEAN_MOTION_DDOT":2.8165e-5},{"OBJECT_NAME":"STARLINK-36803","OBJECT_ID":"2026-035Q","EPOCH":"2026-03-05T04:00:01.999584","MEAN_MOTION":15.98287124,"ECCENTRICITY":0.0001113,"INCLINATION":97.2742,"RA_OF_ASC_NODE":356.1698,"ARG_OF_PERICENTER":115.2078,"MEAN_ANOMALY":119.3173,"EPHEMERIS_TYPE":0,"CLASSIFICATION_TYPE":"U","NORAD_CAT_ID":67893,"ELEMENT_SET_NO":999,"REV_AT_EPOCH":302,"BSTAR":-0.0020323,"MEAN_MOTION_DOT":-0.00933262,"MEAN_MOTION_DDOT":0.0002829},{"OBJECT_NAME":"STARLINK-36846","OBJECT_ID":"2026-035R","EPOCH":"2026-03-05T04:00:01.999584","MEAN_MOTION":15.98500962,"ECCENTRICITY":0.000114,"INCLINATION":97.2738,"RA_OF_ASC_NODE":356.1737,"ARG_OF_PERICENTER":113.2046,"MEAN_ANOMALY":131.0041,"EPHEMERIS_TYPE":0,"CLASSIFICATION_TYPE":"U","NORAD_CAT_ID":67894,"ELEMENT_SET_NO":999,"REV_AT_EPOCH":302,"BSTAR":-0.0020736,"MEAN_MOTION_DOT":-0.00963371,"MEAN_MOTION_DDOT":0.00030079},{"OBJECT_NAME":"STARLINK-36866","OBJECT_ID":"2026-035S","EPOCH":"2026-03-05T04:27:58.576032","MEAN_MOTION":15.98803356,"ECCENTRICITY":6.24e-5,"INCLINATION":97.2738,"RA_OF_ASC_NODE":356.1972,"ARG_OF_PERICENTER":49.4563,"MEAN_ANOMALY":310.6769,"EPHEMERIS_TYPE":0,"CLASSIFICATION_TYPE":"U","NORAD_CAT_ID":67895,"ELEMENT_SET_NO":999,"REV_AT_EPOCH":312,"BSTAR":-0.00055849,"MEAN_MOTION_DOT":-0.00265345,"MEAN_MOTION_DDOT":2.7601e-5},{"OBJECT_NAME":"STARLINK-36877","OBJECT_ID":"2026-035T","EPOCH":"2026-03-05T04:00:01.999584","MEAN_MOTION":15.98395591,"ECCENTRICITY":0.0001049,"INCLINATION":97.2738,"RA_OF_ASC_NODE":356.1716,"ARG_OF_PERICENTER":94.1436,"MEAN_ANOMALY":145.4102,"EPHEMERIS_TYPE":0,"CLASSIFICATION_TYPE":"U","NORAD_CAT_ID":67896,"ELEMENT_SET_NO":999,"REV_AT_EPOCH":302,"BSTAR":-0.0020529,"MEAN_MOTION_DOT":-0.00948288,"MEAN_MOTION_DDOT":0.00029177},{"OBJECT_NAME":"STARLINK-36870","OBJECT_ID":"2026-035U","EPOCH":"2026-03-05T04:26:45.465216","MEAN_MOTION":15.98875422,"ECCENTRICITY":0.0001474,"INCLINATION":97.2734,"RA_OF_ASC_NODE":356.1977,"ARG_OF_PERICENTER":164.0686,"MEAN_ANOMALY":196.0639,"EPHEMERIS_TYPE":0,"CLASSIFICATION_TYPE":"U","NORAD_CAT_ID":67897,"ELEMENT_SET_NO":999,"REV_AT_EPOCH":312,"BSTAR":-0.00027357,"MEAN_MOTION_DOT":-0.00130907,"MEAN_MOTION_DDOT":8.543e-6}]
